SAUDISAT 1C (SO-50)     
1 27607U 02058C   26177.93292419  .00000920  00000+0  12578-3 0  9995
2 27607  64.5520  98.8324 0075044 260.6581  98.6035 14.83066213265905
SAUDISAT 2              
1 28371U 04025F   26177.92019621  .00000250  00000+0  66867-4 0  9998
2 28371  98.5508 178.1537 0023431 266.7691  93.0825 14.56689066167169
SAUDISAT 3              
1 31118U 07012B   26177.84698630  .00000250  00000+0  48540-4 0  9992
2 31118  98.1458 128.2540 0014277 191.5802 168.5078 14.71430754 29169
PISAT                   
1 41784U 16059B   26177.95262248  .00000903  00000+0  16112-3 0  9991
2 41784  97.8180 177.9859 0029196 171.3443 188.8272 14.68999168521178
FLYING LAPTOP           
1 42831U 17042G   26177.98401516  .00004711  00000+0  36995-3 0  9996
2 42831  97.4721 333.1427 0019961  90.2626 270.0886 15.01208360487921
SALSAT                  
1 46495U 20068K   26177.95657953  .00008212  00000+0  28601-3 0  9998
2 46495  97.8848 181.6168 0007822 266.2984  93.7361 15.29932421316851
